37192,GLOBALSTAR M075,2010,114.08,700.0,+,52.0,Active,1,LEO,Kazakhstan,Globalstar,Commercial,Communications,Soyuz,1 37192U 10054E   25102.83246787 -.00000084  00000+0  11236-3 0  9995,2 37192  51.9977  20.5250 0000566  75.2178 326.2338 12.62263333667594,12.62263333,5.66e-05,LEO
37193,GLOBALSTAR M073,2010,114.08,700.0,+,52.01,Active,1,LEO,Kazakhstan,Globalstar,Commercial,Communications,Soyuz,1 37193U 10054F   25103.01960556 -.00000087  00000+0  93879-4 0  9991,2 37193  52.0060 293.7295 0000817 108.2821  62.3141 12.62270403669659,12.62270403,8.17e-05,LEO
37739,GLOBALSTAR M083,2011,114.08,700.0,+,51.99,Active,1,LEO,Kazakhstan,Globalstar,Commercial,Communications,Soyuz,1 37739U 11033A   25102.79003598 -.00000092  00000+0  67798-4 0  9990,2 37739  51.9851 243.2459 0000856 106.5377  41.2722 12.62262739638596,12.62262739,8.56e-05,LEO
37740,GLOBALSTAR M088,2011,114.08,700.0,+,51.97,Active,1,LEO,Kazakhstan,Globalstar,Commercial,Communications,Soyuz,1 37740U 11033B   25103.55652103 -.00000057  00000+0  25925-3 0  9995,2 37740  51.9713 146.4566 0000365 109.2377  44.1820 12.62265432634526,12.62265432,3.65e-05,LEO
37741,GLOBALSTAR M091,2011,114.08,700.0,+,52.0,Active,1,LEO,Kazakhstan,Globalstar,Commercial,Communications,Soyuz,1 37741U 11033C   25102.78192690 -.00000087  00000+0  91568-4 0  9990,2 37741  51.9975 112.2542 0000530  81.9096  89.1001 12.62266993634927,12.62266993,5.3e-05,LEO
37742,GLOBALSTAR M085,2011,114.08,700.0,+,51.99,Active,1,LEO,Kazakhstan,Globalstar,Commercial,Communications,Soyuz,1 37742U 11033D   25102.89621826 -.00000105  00000+0 -57418-5 0  9990,2 37742  51.9870  63.0002 0000625  73.0691 317.7375 12.62267223635454,12.62267223,6.25e-05,LEO
37743,GLOBALSTAR M081,2011,114.08,700.0,+,52.0,Active,1,LEO,Kazakhstan,Globalstar,Commercial,Communications,Soyuz,1 37743U 11033E   25102.91972605 -.00000109  00000+0 -29352-4 0  9997,2 37743  51.9962  65.6755 0000528  92.0426 285.4879 12.62262687635605,12.62262687,5.28e-05,LEO
37744,GLOBALSTAR M089,2011,114.08,700.0,+,52.0,Active,1,LEO,Kazakhstan,Globalstar,Commercial,Communications,Soyuz,1 37744U 11033F   25103.14636360 -.00000078  00000+0  14577-3 0  9995,2 37744  51.9961  19.2267 0000382  81.4293  66.9670 12.62268560636721,12.6226856,3.82e-05,LEO
